NORAD_CAT_ID,OBJECT_NAME,OBJECT_TYPE,EPOCH,MEAN_MOTION,ECCENTRICITY,INCLINATION,RA_OF_ASC_NODE,ARG_OF_PERICENTER,MEAN_ANOMALY,BSTAR,MEAN_MOTION_DOT,MEAN_MOTION_DDOT,TLE_LINE0,TLE_LINE1,TLE_LINE2,SEMIMAJOR_AXIS,PERIOD,APOGEE,PERIGEE,DECAYED
49132.0,STARLINK-3090,PAYLOAD,2023-12-16 19:02:19,14.98311527,0.00022,70.0014,186.6002,239.5519,120.5422,-6.121e-05,-8.23e-06,0.0,0 STARLINK-3090,1 49132U 21082C   23350.79328234 -.00000823  00000-0 -61210-4 0  9992,2 49132  70.0014 186.6002 0002200 239.5519 120.5422 14.98311527124064,6950.25,96.108,573.644,570.586,0.0
49132.0,STARLINK-3090,PAYLOAD,2023-12-16 22:14:35,14.983124,0.000228,70.0003,186.2604,265.6483,94.4415,-5.8028e-05,-7.85e-06,0.0,0 STARLINK-3090,1 49132U 21082C   23350.92680370 -.00000785  00000-0 -58028-4 0  9999,2 49132  70.0003 186.2604 0002280 265.6483  94.4415 14.98312400124088,6950.247,96.108,573.697,570.528,0.0
49132.0,STARLINK-3090,PAYLOAD,2023-12-17 14:15:54,14.98333562,0.0002879,69.9988,184.5773,273.1113,86.9716,0.00010886,1.206e-05,0.0,0 STARLINK-3090,1 49132U 21082C   23351.59438615  .00001206  00000-0  10886-3 0  9992,2 49132  69.9988 184.5773 0002879 273.1113  86.9716 14.98333562124186,6950.182,96.107,574.048,570.046,0.0
49132.0,STARLINK-3090,PAYLOAD,2023-12-17 19:04:18,14.98338037,0.0002281,70.0004,184.0727,256.978,103.1125,0.00021681,2.495e-05,0.0,0 STARLINK-3090,1 49132U 21082C   23351.79466037  .00002495  00000-0  21681-3 0  9999,2 49132  70.0004 184.0727 0002281 256.9780 103.1125 14.98338037124210,6950.168,96.106,573.618,570.448,0.0
49132.0,STARLINK-3090,PAYLOAD,2023-12-17 22:16:33,14.98354163,0.0002734,69.9988,183.7357,265.4415,94.6432,0.00032618,3.803e-05,0.0,0 STARLINK-3090,1 49132U 21082C   23351.92816617  .00003803  00000-0  32618-3 0  9993,2 49132  69.9988 183.7357 0002734 265.4415  94.6432 14.98354163124231,6950.118,96.105,573.883,570.083,0.0
49132.0,STARLINK-3090,PAYLOAD,2023-12-18 14:17:55,14.98337388,0.0002546,70.0016,182.0576,219.8021,140.2951,0.00027053,3.137e-05,0.0,0 STARLINK-3090,1 49132U 21082C   23352.59577547  .00003137  00000-0  27053-3 0  9990,2 49132  70.0016 182.0576 0002546 219.8021 140.2951 14.98337388124333,6950.17,96.107,573.805,570.266,0.0
49132.0,STARLINK-3090,PAYLOAD,2023-12-18 19:06:19,14.98333599,0.000282,69.9993,181.549,259.0823,101.0019,0.00018947,2.169e-05,0.0,0 STARLINK-3090,1 49132U 21082C   23352.79605960  .00002169  00000-0  18947-3 0  9999,2 49132  69.9993 181.5490 0002820 259.0823 101.0019 14.98333599124367,6950.182,96.107,574.007,570.087,0.0
49132.0,STARLINK-3090,PAYLOAD,2023-12-18 22:18:35,14.98332776,0.0003447,69.9977,181.2098,276.4177,83.659,0.00013855,1.561e-05,0.0,0 STARLINK-3090,1 49132U 21082C   23352.92958171  .00001561  00000-0  13855-3 0  9997,2 49132  69.9977 181.2098 0003447 276.4177  83.6590 14.98332776124388,6950.184,96.107,574.445,569.654,0.0
49132.0,STARLINK-3090,PAYLOAD,2023-12-19 14:19:56,14.98345005,0.0002435,69.9998,179.5292,255.0143,105.0746,-0.00019394,-2.407e-05,0.0,0 STARLINK-3090,1 49132U 21082C   23353.59718102 -.00002407  00000-0 -19394-3 0  9995,2 49132  69.9998 179.5292 0002435 255.0143 105.0746 14.98345005124481,6950.146,96.106,573.704,570.319,0.0
49132.0,STARLINK-3090,PAYLOAD,2023-12-19 19:08:20,14.98341525,0.0002766,69.9991,179.0236,264.469,95.6153,-0.0002231,-2.755e-05,0.0,0 STARLINK-3090,1 49132U 21082C   23353.79746246 -.00002755  00000-0 -22310-3 0  9995,2 49132  69.9991 179.0236 0002766 264.4690  95.6153 14.98341525124518,6950.157,96.106,573.945,570.1,0.0
49132.0,STARLINK-3090,PAYLOAD,2023-12-20 14:21:57,14.9833215,0.0002921,69.9989,177.0031,273.012,87.0705,4.2409e-05,4.13e-06,0.0,0 STARLINK-3090,1 49132U 21082C   23354.59857740  .00000413  00000-0  42409-4 0  9995,2 49132  69.9989 177.0031 0002921 273.0120  87.0705 14.98332150124638,6950.186,96.107,574.081,570.021,0.0
49132.0,STARLINK-3090,PAYLOAD,2023-12-20 19:10:21,14.98332256,0.0002908,69.9991,176.4983,273.1956,86.887,7.0498e-05,7.48e-06,0.0,0 STARLINK-3090,1 49132U 21082C   23354.79885653  .00000748  00000-0  70498-4 0  9991,2 49132  69.9991 176.4983 0002908 273.1956  86.8870 14.98332256124663,6950.186,96.107,574.072,570.03,0.0
49132.0,STARLINK-3090,PAYLOAD,2023-12-20 22:22:37,14.98332821,0.0002919,69.9992,176.1622,273.1452,86.9373,8.6102e-05,9.35e-06,0.0,0 STARLINK-3090,1 49132U 21082C   23354.93237573  .00000935  00000-0  86102-4 0  9996,2 49132  69.9992 176.1622 0002919 273.1452  86.9373 14.98332821124683,6950.184,96.107,574.078,570.02,0.0
49132.0,STARLINK-3090,PAYLOAD,2023-12-21 14:23:58,14.98330106,0.0002905,69.9994,174.4792,271.9441,88.1385,7.6039e-05,8.14e-06,0.0,0 STARLINK-3090,1 49132U 21082C   23355.59997723  .00000814  00000-0  76039-4 0  9993,2 49132  69.9994 174.4792 0002905 271.9441  88.1385 14.98330106124785,6950.193,96.107,574.077,570.039,0.0
49132.0,STARLINK-3090,PAYLOAD,2023-12-21 22:24:38,14.98331356,0.0002898,69.9994,173.6379,271.6477,88.435,8.2885e-05,8.96e-06,0.0,0 STARLINK-3090,1 49132U 21082C   23355.93377629  .00000896  00000-0  82885-4 0  9994,2 49132  69.9994 173.6379 0002898 271.6477  88.4350 14.98331356124833,6950.189,96.107,574.068,570.04,0.0
49132.0,STARLINK-3090,PAYLOAD,2023-12-22 14:25:59,14.98332492,0.0002924,69.9997,171.9556,272.5584,87.524,3.9941e-06,-4.5e-07,0.0,0 STARLINK-3090,1 49132U 21082C   23356.60137737 -.00000045  00000-0  39941-5 0  9996,2 49132  69.9997 171.9556 0002924 272.5584  87.5240 14.98332492124934,6950.185,96.107,574.082,570.018,0.0
49132.0,STARLINK-3090,PAYLOAD,2023-12-22 22:26:39,14.9833303,0.0002827,69.9995,171.1138,269.4588,90.6247,1.4957e-05,8.5e-07,0.0,0 STARLINK-3090,1 49132U 21082C   23356.93517613  .00000085  00000-0  14957-4 0  9999,2 49132  69.9995 171.1138 0002827 269.4588  90.6247 14.98333030124987,6950.184,96.107,574.013,570.084,0.0
49132.0,STARLINK-3090,PAYLOAD,2023-12-23 11:15:44,14.98324238,0.0002744,70.0001,169.7686,258.5089,101.5762,-7.1554e-05,-9.46e-06,0.0,0 STARLINK-3090,1 49132U 21082C   23357.46926426 -.00000946  00000-0 -71554-4 0  9998,2 49132  70.0001 169.7686 0002744 258.5089 101.5762 14.98324238125066,6950.211,96.107,573.983,570.169,0.0
49132.0,STARLINK-3090,PAYLOAD,2023-12-23 14:28:00,14.98321233,0.0002557,70.0,169.4311,258.1573,101.9299,-8.1995e-05,-1.071e-05,0.0,0 STARLINK-3090,1 49132U 21082C   23357.60278752 -.00001071  00000-0 -81995-4 0  9996,2 49132  70.0000 169.4311 0002557 258.1573 101.9299 14.98321233125086,6950.22,96.108,573.862,570.308,0.0
49132.0,STARLINK-3090,PAYLOAD,2023-12-23 19:16:27,14.9829419,0.0002932,69.9995,168.9259,266.9476,93.1347,-0.0003795,-4.614e-05,0.0,0 STARLINK-3090,1 49132U 21082C   23357.80309457 -.00004614  00000-0 -37950-3 0  9992,2 49132  69.9995 168.9259 0002932 266.9476  93.1347 14.98294190125118,6950.304,96.109,574.206,570.131,0.0
49132.0,STARLINK-3090,PAYLOAD,2023-12-23 20:52:33,14.98320359,0.0003006,69.9998,168.7579,276.5922,83.4895,-7.3924e-05,-9.75e-06,0.0,0 STARLINK-3090,1 49132U 21082C   23357.86983335 -.00000975  00000-0 -73924-4 0  9999,2 49132  69.9998 168.7579 0003006 276.5922  83.4895 14.98320359125128,6950.223,96.108,574.177,569.998,0.0
49132.0,STARLINK-3090,PAYLOAD,2023-12-24 11:17:47,14.98311056,0.0002649,70.001,167.2457,266.523,93.5626,-0.0001066,-1.364e-05,0.0,0 STARLINK-3090,1 49132U 21082C   23358.47068677 -.00001364  00000-0 -10660-3 0  9990,2 49132  70.0010 167.2457 0002649 266.5230  93.5626 14.98311056125216,6950.251,96.108,573.958,570.275,0.0
49132.0,STARLINK-3090,PAYLOAD,2023-12-24 14:30:01,14.98332531,0.0003189,69.9993,166.9049,272.424,87.6554,0.00012087,1.35e-05,0.0,0 STARLINK-3090,1 49132U 21082C   23358.60418954  .00001350  00000-0  12087-3 0  9990,2 49132  69.9993 166.9049 0003189 272.4240  87.6554 14.98332531125230,6950.185,96.107,574.266,569.834,0.0
49132.0,STARLINK-3090,PAYLOAD,2023-12-24 19:18:26,14.98333577,0.0003193,69.9994,166.4003,271.7551,88.3242,0.0001308,1.468e-05,0.0,0 STARLINK-3090,1 49132U 21082C   23358.80446827  .00001468  00000-0  13080-3 0  9996,2 49132  69.9994 166.4003 0003193 271.7551  88.3242 14.98333577125264,6950.182,96.107,574.266,569.828,0.0
49132.0,STARLINK-3090,PAYLOAD,2023-12-24 20:54:34,14.98334402,0.0003217,69.9994,166.232,272.4157,87.6634,0.00014008,1.579e-05,0.0,0 STARLINK-3090,1 49132U 21082C   23358.87122776  .00001579  00000-0  14008-3 0  9991,2 49132  69.9994 166.2320 0003217 272.4157  87.6634 14.98334402125277,6950.179,96.107,574.28,569.808,0.0
49132.0,STARLINK-3090,PAYLOAD,2023-12-25 11:19:41,14.98378387,0.0003348,70.0,164.7181,277.2703,82.8075,0.00083376,9.882e-05,0.0,0 STARLINK-3090,1 49132U 21082C   23359.47200843  .00009882  00000-0  83376-3 0  9999,2 49132  70.0000 164.7181 0003348 277.2703  82.8075 14.98378387125367,6950.043,96.104,574.235,569.581,0.0
49132.0,STARLINK-3090,PAYLOAD,2023-12-25 14:32:00,14.98336778,0.0003041,70.0009,164.3819,280.065,80.0166,0.00036213,4.231e-05,0.0,0 STARLINK-3090,1 49132U 21082C   23359.60556108  .00004231  00000-0  36213-3 0  9993,2 49132  70.0009 164.3819 0003041 280.0650  80.0166 14.98336778125384,6950.172,96.107,574.15,569.923,0.0
49132.0,STARLINK-3090,PAYLOAD,2023-12-25 19:20:25,14.98329971,0.0002724,70.0006,163.8772,254.69,105.3958,0.00023502,2.712e-05,0.0,0 STARLINK-3090,1 49132U 21082C   23359.80584624  .00002712  00000-0  23502-3 0  9998,2 49132  70.0006 163.8772 0002724 254.6900 105.3958 14.98329971125416,6950.193,96.107,573.951,570.165,0.0
49132.0,STARLINK-3090,PAYLOAD,2023-12-25 20:56:32,14.98333797,0.0002283,70.0008,163.7072,251.7272,108.3639,0.00023404,2.701e-05,0.0,0 STARLINK-3090,1 49132U 21082C   23359.87260399  .00002701  00000-0  23404-3 0  9994,2 49132  70.0008 163.7072 0002283 251.7272 108.3639 14.98333797125421,6950.181,96.107,573.633,570.459,0.0
49132.0,STARLINK-3090,PAYLOAD,2023-12-26 14:34:02,14.98333797,0.0002758,70.0007,161.8582,254.443,105.6424,-7.8251e-05,-1.027e-05,0.0,0 STARLINK-3090,1 49132U 21082C   23360.60697042 -.00001027  00000-0 -78251-4 0  9999,2 49132  70.0007 161.8582 0002758 254.4430 105.6424 14.98333797125532,6950.181,96.107,573.963,570.129,0.0
